GLOBALSTAR M057         
1 25943U 99058A   24234.61543483 -.00000026  00000+0  60574-3 0  9996
2 25943  51.9978 118.3655 0002741 103.9131 256.2024 12.24791997130225
GLOBALSTAR M059         
1 25944U 99058B   24234.91257904 -.00000085  00000+0  12593-4 0  9994
2 25944  52.0026 296.8015 0000593 108.0810  63.8906 11.99964504538115
GLOBALSTAR M056         
1 25945U 99058C   24234.51410101  .00000004  00000+0  10645-2 0  9995
2 25945  51.9976 307.5329 0000318 272.5591 189.2262 12.04775749126506
GLOBALSTAR M031         
1 25946U 99058D   24234.49454568 -.00000172  00000+0 -83174-3 0  9994
2 25946  51.9936 217.8521 0001441 294.2030 215.3378 12.16013893128089
GLOBALSTAR M039         
1 25961U 99062A   24234.78184721 -.00000025  00000+0  43959-3 0  9992
2 25961  51.9840 100.6290 0003489  49.5919 310.5252 12.62300513142403
GLOBALSTAR M034         
1 25962U 99062B   24234.86086951 -.00000084  00000+0 -45010-4 0  9995
2 25962  51.9869  69.4534 0013497 193.2195 180.0498 11.79430464103079
GLOBALSTAR M029         
1 25963U 99062C   24234.31731288 -.00000079  00000+0  90991-4 0  9997
2 25963  51.9782 186.7018 0002343 254.8660 272.7233 11.99882130133121
GLOBALSTAR M061         
1 25964U 99062D   24234.37746862 -.00000080  00000+0  47605-5 0  9995
2 25964  51.9763 250.7726 0006058 122.5691 342.6552 11.76763871 85886
